{
    "links": {
        "self": "http://www.neowsapp.com/rest/v1/neo/3092398?api_key=iIulBulltgU6a56xZRHN4H3l9WmuAYTsLGpBGhQ2"
    },
    "id": "3092398",
    "neo_reference_id": "3092398",
    "name": "(2001 UD5)",
    "designation": "2001 UD5",
    "nasa_jpl_url": "http://ssd.jpl.nasa.gov/sbdb.cgi?sstr=3092398",
    "absolute_magnitude_h": 22.7,
    "estimated_diameter": {
        "kilometers": {
            "estimated_diameter_min": 0.0766575574,
            "estimated_diameter_max": 0.1714115092
        },
        "meters": {
            "estimated_diameter_min": 76.6575573531,
            "estimated_diameter_max": 171.4115092306
        },
        "miles": {
            "estimated_diameter_min": 0.0476327831,
            "estimated_diameter_max": 0.1065101409
        },
        "feet": {
            "estimated_diameter_min": 251.5011804664,
            "estimated_diameter_max": 562.3737359442
        }
    },
    "is_potentially_hazardous_asteroid": false,
    "close_approach_data": [
        {
            "close_approach_date": "1932-10-24",
            "close_approach_date_full": "1932-Oct-24 08:52",
            "epoch_date_close_approach": -1173539280000,
            "relative_velocity": {
                "kilometers_per_second": "25.365842518",
                "kilometers_per_hour": "91317.033064908",
                "miles_per_hour": "56740.8531285813"
            },
            "miss_distance": {
                "astronomical": "0.2807422445",
                "lunar": "109.2087331105",
                "kilometers": "41998441.796219215",
                "miles": "26096621.615746567"
            },
            "orbiting_body": "Earth"
        },
        {
            "close_approach_date": "2001-10-03",
            "close_approach_date_full": "2001-Oct-03 18:37",
            "epoch_date_close_approach": 1002134220000,
            "relative_velocity": {
                "kilometers_per_second": "15.4788238502",
                "kilometers_per_hour": "55723.7658607308",
                "miles_per_hour": "34624.5810705191"
            },
            "miss_distance": {
                "astronomical": "0.0556646378",
                "lunar": "21.6535441042",
                "kilometers": "8327311.249201486",
                "miles": "5174351.2723970668"
            },
            "orbiting_body": "Earth"
        },
        {
            "close_approach_date": "2003-04-16",
            "close_approach_date_full": "2003-Apr-16 19:29",
            "epoch_date_close_approach": 1050521340000,
            "relative_velocity": {
                "kilometers_per_second": "4.6523810134",
                "kilometers_per_hour": "16748.5716482851",
                "miles_per_hour": "10406.9110889025"
            },
            "miss_distance": {
                "astronomical": "1.7950192991",
                "lunar": "698.2625073499",
                "kilometers": "268531063.754252917",
                "miles": "166857465.7333955746"
            },
            "orbiting_body": "Juptr"
        },
        {
            "close_approach_date": "2098-01-30",
            "close_approach_date_full": "2098-Jan-30 11:24",
            "epoch_date_close_approach": 4041919440000,
            "relative_velocity": {
                "kilometers_per_second": "12.7728144693",
                "kilometers_per_hour": "45982.1320895498",
                "miles_per_hour": "28571.5086864206"
            },
            "miss_distance": {
                "astronomical": "0.0837005615",
                "lunar": "32.5595184235",
                "kilometers": "12521425.718204005",
                "miles": "7780453.156885069"
            },
            "orbiting_body": "Venus"
        }
    ],
    "orbital_data": {
        "orbit_id": "8",
        "orbit_determination_date": "2017-04-06 09:15:58",
        "first_observation_date": "2001-10-19",
        "last_observation_date": "2001-11-11",
        "data_arc_in_days": 23,
        "observations_used": 31,
        "orbit_uncertainty": "8",
        "minimum_orbit_intersection": ".00266016",
        "jupiter_tisserand_invariant": "3.269",
        "epoch_osculation": "2452208.5",
        "eccentricity": ".6662338832260295",
        "semi_major_axis": "2.279712456486114",
        "inclination": "2.533051046095197",
        "ascending_node_longitude": "18.99556360464618",
        "orbital_period": "1257.240999560285",
        "perihelion_distance": ".7608907739626194",
        "perihelion_argument": "290.3419041271387",
        "aphelion_distance": "3.798534139009608",
        "perihelion_time": "2452146.023992529181",
        "mean_anomaly": "17.88946009345949",
        "mean_motion": ".2863412823205006",
        "equinox": "J2000",
        "orbit_class": {
            "orbit_class_type": "APO",
            "orbit_class_description": "Near-Earth asteroid orbits which cross the Earth’s orbit similar to that of 1862 Apollo",
            "orbit_class_range": "a (semi-major axis) > 1.0 AU; q (perihelion) < 1.017 AU"
        }
    },
    "is_sentry_object": false
}